satname,norad_id,inclination_deg,eccentricity,mean_motion_rev_per_day,perigee_km,apogee_km,l1,l2
STARLINK-1554,46055,53.1602,0.0001342,15.31694865,469.8361810892211,471.67442378319447,1 46055U 20055AE  26141.21026181 -.00000093  00000+0  87827-5 0  9996,2 46055  53.1602 136.7582 0001342  99.1457 260.9697 15.31694865320187
STARLINK-1564,46058,53.1613,0.000147,15.30184241,474.2546736854383,476.2695730277046,1 46058U 20055AH  26141.24767765  .00001025  00000+0  46740-4 0  9995,2 46058  53.1613 137.3417 0001470  85.3206 274.7963 15.30184241320176
STARLINK-1570,46059,53.1612,0.0001478,15.31694668,469.7436233172057,471.7681560553965,1 46059U 20055AJ  26141.95597004 -.00001734  00000+0 -44113-4 0  9992,2 46059  53.1612 133.1640 0001478 110.7751 249.3409 15.31694668320256
STARLINK-1572,46060,53.1596,0.000133,15.30182395,474.35613246348566,476.1791380964696,1 46060U 20055AK  26141.35930626 -.00000494  00000+0 -45716-5 0  9992,2 46060  53.1596 136.5706 0001330  87.4848 272.6305 15.30182395320165
STARLINK-1573,46061,53.1596,0.0001317,15.31685295,469.88182754279387,471.6858332895263,1 46061U 20055AL  26141.22423178 -.00000659  00000+0 -94725-5 0  9995,2 46061  53.1596 136.5421 0001317  95.4612 264.6539 15.31685295320183
STARLINK-1577,46063,53.1604,0.0001425,15.31694014,469.78187172368325,471.73380675286535,1 46063U 20055AN  26141.38268794 -.00000752  00000+0 -12464-4 0  9998,2 46063  53.1604 135.8006 0001425  89.5111 270.6053 15.31694014320204
STARLINK-1583,46064,53.1608,0.0001585,15.30182442,474.1812303313145,476.3537595562102,1 46064U 20055AP  26141.25813108  .00000017  00000+0  12716-4 0  9992,2 46064  53.1608 136.7903 0001585  93.7788 266.3394 15.30182442320171
STARLINK-1536,46070,53.1615,0.0001344,15.31690642,469.8473982613614,471.6883838960839,1 46070U 20055AV  26141.33278035 -.00000061  00000+0  98099-5 0  9991,2 46070  53.1615 123.9201 0001344  95.2324 264.8831 15.31690642320368
STARLINK-1542,46073,53.1627,0.0001294,15.31694442,469.8703165574316,471.64281021163606,1 46073U 20055AY  26141.94440278  .00002067  00000+0  78368-4 0  9994,2 46073  53.1627 124.0378 0001294  93.1617 266.9532 15.31694442320405
STARLINK-1549,46074,53.0525,0.0004094,15.27920357,479.22158150595806,484.8386863552196,1 46074U 20055AZ  26141.93515517  .00029455  00000+0  10749-2 0  9990,2 46074  53.0525 121.0726 0004094  52.5636 307.5735 15.27920357320439
STARLINK-1551,46075,53.161,0.000121,15.30191638,474.4107783362897,476.06929557923377,1 46075U 20055BA  26141.36924448  .00000837  00000+0  40399-4 0  9994,2 46075  53.1610 123.4735 0001210  84.7822 275.3317 15.30191638320369
STARLINK-1552,46076,53.161,0.0001347,15.3170628,469.79873372675956,471.64381614602735,1 46076U 20055BB  26141.96225035 -.00000056  00000+0  99494-5 0  9992,2 46076  53.1610 120.5079 0001347  94.4415 265.6740 15.31706280320443
STARLINK-1559,46077,53.0237,0.0003256,15.36424271,454.4678662113656,458.91870769422894,1 46077U 20055BC  26141.17638461  .00037330  00000+0  10409-2 0  9997,2 46077  53.0237  94.6301 0003256  45.0086 315.1179 15.36424271320702
STARLINK-1566,46079,53.1612,0.000127,15.31701335,469.8662087900175,471.6058225359957,1 46079U 20055BE  26141.96689503  .00000074  00000+0  14139-4 0  9990,2 46079  53.1612 120.3418 0001270 104.0998 256.0144 15.31701335320462
STARLINK-1568,46080,53.0595,0.0004426,15.52496232,406.4363718047016,412.44473545517485,1 46080U 20055BF  26141.89254318  .00031957  00000+0  51815-3 0  9991,2 46080  53.0595  42.0286 0004426  47.3477 312.7904 15.52496232321547
STARLINK-1578,46082,53.1604,0.0001494,15.31696269,469.7278932803747,471.7743410497824,1 46082U 20055BH  26141.38403316  .00000140  00000+0  16295-4 0  9995,2 46082  53.1604 123.5694 0001494  84.1730 275.9442 15.31696269320367
STARLINK-1579,46083,53.1615,0.0001332,15.31700565,469.8260407991411,471.65058118198885,1 46083U 20055BJ  26141.37032514 -.00000382  00000+0 -54673-6 0  9997,2 46083  53.1615 123.1696 0001332  88.9700 271.1454 15.31700565320364
STARLINK-1622,46128,53.0166,0.000638,15.78716673,329.7933194911466,338.358102910639,1 46128U 20057M   26141.71760530  .00098893  00000+0  54956-3 0  9996,2 46128  53.0166 222.2134 0006380   6.7463 353.3641 15.78716673318843
STARLINK-1623,46129,53.0427,0.0003483,15.7093547,353.8766269495636,358.56778157125063,1 46129U 20057N   26141.77840411  .00078087  00000+0  61117-3 0  9990,2 46129  53.0427 258.9544 0003483 337.9010  22.1856 15.70935470318347
STARLINK-1624,46130,53.0251,0.0012849,16.10333478,237.41736951834082,254.43989337803578,1 46130U 20057P   26141.70629198  .01012773  61737-3  10200-2 0  9997,2 46130  53.0251 224.2333 0012849 334.4355  25.6042 16.10333478320068
STARLINK-1596,46141,53.0355,0.0005242,15.56257443,394.94754610243126,402.05217218555845,1 46141U 20057AA  26140.99741998  .00055392  00000+0  77582-3 0  9994,2 46141  53.0355 243.3901 0005242 331.6242  28.4482 15.56257443318490
STARLINK-1597,46142,53.0433,0.0001642,15.70566858,356.1699108728226,358.38182045790563,1 46142U 20057AB  26141.68853440  .00072207  00000+0  57479-3 0  9995,2 46142  53.0433 299.1120 0001642  37.0631 323.0499 15.70566858317769
STARLINK-1606,46144,53.0368,0.0006115,15.82694815,318.72581659878415,326.921091233924,1 46144U 20057AD  26142.00003472  .00105365  00000+0  48726-3 0  9993,2 46144  53.0368 252.3346 0006115 312.9958 333.6262 15.82694815  5965
STARLINK-1608,46146,53.1604,0.0001338,15.34224317,462.31008263673266,464.14083123020737,1 46146U 20057AF  26141.79420522  .00039527  00000+0  11814-2 0  9992,2 46146  53.1604 329.0068 0001338 249.5711 110.5148 15.34224317317388
STARLINK-1667,46155,53.0148,0.0007649,15.82224048,319.02598680991105,329.2791493911909,1 46155U 20057AQ  26141.51032443  .00140513  00000+0  65999-3 0  9995,2 46155  53.0148 223.0322 0007649   3.5576 356.5498 15.82224048320056
STARLINK-1545,46156,53.0398,0.000473,15.77367676,334.725426878058,341.078799879313,1 46156U 20057AR  26141.64237014  .00105950  00000+0  62495-3 0  9995,2 46156  53.0398 257.8946 0004730 286.1590  73.8909 15.77367676319596
STARLINK-1595,46159,53.0434,0.0001327,15.68829486,361.353173825205,363.14207190411344,1 46159U 20057AU  26141.82625454  .00070708  00000+0  60499-3 0  9991,2 46159  53.0434 300.9369 0001327   5.1572 354.9457 15.68829486319017
STARLINK-1598,46160,53.044,0.0004095,15.68827962,359.4917987624822,365.01217734369766,1 46160U 20057AV  26141.86309073  .00069967  00000+0  59861-3 0  9999,2 46160  53.0440 286.8959 0004095 143.9913 216.1380 15.68827962319200
